OBJECT_NAME,OBJECT_ID,EPOCH,MEAN_MOTION,ECCENTRICITY,INCLINATION,RA_OF_ASC_NODE,ARG_OF_PERICENTER,MEAN_ANOMALY,EPHEMERIS_TYPE,CLASSIFICATION_TYPE,NORAD_CAT_ID,ELEMENT_SET_NO,REV_AT_EPOCH,BSTAR,MEAN_MOTION_DOT,MEAN_MOTION_DDOT
COSMOS 2058,1990-010A,2026-07-16T04:28:22.007712,15.12159506,.00079889,82.4673,280.7545,245.7817,114.2579,0,U,20465,999,96165,.96415981E-4,.1692E-4,0
SL-14 R/B,1990-010B,2026-07-15T21:33:46.262304,14.83663310,.0018415,82.5035,146.9822,234.7833,125.1659,0,U,20466,999,94749,.18567E-4,.177E-5,0
SL-14 R/B,1990-018B,2026-07-16T04:11:36.406752,14.82234407,.0016956,82.5216,103.0148,33.7822,326.4469,0,U,20511,999,94161,.22587212E-4,.204E-5,0
HST,1990-037B,2026-07-16T05:12:59.862528,15.31066695,.00021817,28.4722,242.1156,113.0880,246.9946,0,U,20580,999,79302,.95693019E-4,.3185E-4,0
SL-16 R/B,1990-046B,2026-07-15T22:21:28.988928,14.15025153,.0012387,70.9987,28.5771,113.0227,247.2203,0,U,20625,999,86653,.16082E-3,.264E-5,0
COSMOS 2084,1990-055A,2026-07-16T03:22:53.156928,15.06225774,.00082067,62.7882,257.2591,319.0540,40.9944,0,U,20663,999,95566,.67316476E-4,.789E-5,0
SL-6 R/B(2),1990-055D,2026-07-16T05:40:21.081504,15.04090140,.00453038,62.7805,176.5173,9.1305,351.0607,0,U,20666,999,95752,.81238819E-4,.945E-5,0
SL-8 R/B,1990-078B,2026-07-16T05:07:54.185376,14.93593619,.03432956,82.9039,135.3889,300.0725,56.6861,0,U,20775,999,82845,.23211905E-3,.8191E-4,0
SL-8 R/B,1991-006B,2026-07-16T04:50:33.644256,13.77509371,.00233789,82.9407,74.4470,37.8456,80.1161,0,U,21088,999,78176,.7435407E-4,.89E-6,0
OKEAN-3,1991-039A,2026-07-16T07:39:15.457824,15.05438116,.00124897,82.5144,212.1283,250.4255,109.5624,0,U,21397,999,88438,.12084212E-3,.1765E-4,0
COSMOS 2151,1991-042A,2026-07-16T06:26:53.412864,15.00514614,.00118559,82.4982,319.6150,351.8373,8.2656,0,U,21422,999,88247,.59801319E-4,.782E-5,0
SL-14 R/B,1991-042B,2026-07-16T04:29:54.988800,14.81918344,.00170687,82.4932,99.7011,173.6712,186.4721,0,U,21423,999,87210,.19190116E-4,.176E-5,0
ERS-1,1991-050A,2026-07-16T06:55:14.849184,14.39533659,.00319338,98.7796,218.6970,178.5323,181.5964,0,U,21574,999,83423,.66902149E-4,.164E-5,0
ARIANE 40 R/B,1991-050F,2026-07-16T02:28:56.339904,14.42972173,.00041225,98.1862,244.3917,59.4453,300.7145,0,U,21610,999,83751,.46914908E-4,.115E-5,0
INTERCOSMOS 25,1991-086A,2026-07-16T02:00:30.879936,12.12240627,.14846186,82.6006,232.3233,200.0074,153.6347,0,U,21819,999,51224,.10539226E-4,.69E-6,0
SL-8 R/B,1992-008B,2026-07-16T01:38:52.986912,13.75983948,.00357171,82.9272,172.3140,134.2327,295.2034,0,U,21876,999,72707,.80381439E-4,.94E-6,0
SL-8 R/B,1992-020B,2026-07-16T03:52:17.126112,13.75550179,.00279313,82.9280,58.3324,300.7035,177.6523,0,U,21938,999,71879,-.5199649E-5,.1E-6,0
USA 81,1992-023A,2026-07-16T03:00:35.054208,14.32405104,.00019324,85.0050,57.3014,65.2552,294.8842,0,U,21949,999,11317,.3032407E-4,.102E-5,0
COSMOS 2219,1992-076A,2026-07-16T04:37:43.159296,14.14108359,.00183294,71.0611,109.4381,355.9542,4.1430,0,U,22219,999,73654,-.93797825E-4,-.226E-5,0
SL-16 R/B,1992-076B,2026-07-16T06:02:49.376832,14.16877766,.00150357,71.0004,277.5554,260.8538,130.1457,0,U,22220,999,74004,.66544012E-4,.86E-6,0
COSMOS 2221,1992-080A,2026-07-16T06:58:21.756576,14.96605583,.00157833,82.5047,155.8810,116.9143,243.3694,0,U,22236,999,80002,.69610377E-4,.821E-5,0
SL-16 R/B,1992-093B,2026-07-16T03:30:33.447744,14.15465450,.00022387,71.0216,94.5989,132.2455,227.8858,0,U,22285,999,73133,-.10240288E-3,-.248E-5,0
COSMOS 2228,1992-094A,2026-07-16T05:14:33.242784,14.97677111,.00163858,82.5188,114.2354,225.4849,134.5036,0,U,22286,999,79529,.648218E-4,.787E-5,0
SL-16 R/B,1993-016B,2026-07-16T06:29:50.139744,14.15313192,.00087995,71.0086,305.1218,136.0330,224.1494,0,U,22566,999,72036,.1500336E-3,.245E-5,0
COSMOS 2242,1993-024A,2026-07-16T06:11:37.253184,14.96986479,.00147297,82.5199,143.7300,228.6859,131.3096,0,U,22626,999,79962,.72655956E-4,.863E-5,0
SL-16 R/B,1993-059B,2026-07-16T03:29:30.684192,14.17249367,.00166997,70.9901,100.2368,7.1032,353.0325,0,U,22803,999,69773,-.1259354E-4,-.74E-6,0
ARIANE 40 R/B,1993-061H,2026-07-16T04:24:56.024928,14.32918759,.0009506,98.4806,263.4367,262.4796,97.5308,0,U,22830,999,71250,.40771348E-4,.68E-6,0
COSMOS 2278,1994-023A,2026-07-16T04:08:26.936736,14.14393379,.00095823,71.0522,266.2814,204.0865,155.9811,0,U,23087,999,66297,.45370659E-4,.4E-6,0
SL-16 R/B,1994-023B,2026-07-16T03:52:20.561376,14.15024856,.00013936,70.9985,161.0827,124.5524,235.5731,0,U,23088,999,66426,.10607044E-3,.158E-5,0
SL-16 R/B,1994-074B,2026-07-16T02:15:51.649920,14.79524746,.00072355,97.6986,222.6096,151.6316,274.3259,0,U,23343,999,70623,.31245533E-4,.185E-5,0
