COSMOS 2058             
1 20465U 90010A   26197.18636583  .00001692  00000+0  96416-4 0  9999
2 20465  82.4673 280.7545 0007988 245.7817 114.2579 15.12159506961657
SL-14 R/B               
1 20466U 90010B   26196.89845211  .00000177  00000+0  18567-4 0  9995
2 20466  82.5035 146.9822 0018415 234.7833 125.1659 14.83663310947491
SL-14 R/B               
1 20511U 90018B   26197.17472693  .00000204  00000+0  22587-4 0  9994
2 20511  82.5216 103.0148 0016956  33.7822 326.4469 14.82234407941614
HST                     
1 20580U 90037B   26197.21735952  .00003185  00000+0  95693-4 0  9995
2 20580  28.4722 242.1156 0002181 113.0880 246.9946 15.31066695793029
SL-16 R/B               
1 20625U 90046B   26196.93158552  .00000264  00000+0  16082-3 0  9997
2 20625  70.9987  28.5771 0012387 113.0227 247.2203 14.15025153866539
COSMOS 2084             
1 20663U 90055A   26197.14089302  .00000789  00000+0  67316-4 0  9998
2 20663  62.7882 257.2591 0008206 319.0540  40.9944 15.06225774955661
SL-6 R/B(2)             
1 20666U 90055D   26197.23635511  .00000945  00000+0  81239-4 0  9994
2 20666  62.7805 176.5173 0045303   9.1305 351.0607 15.04090140957527
SL-8 R/B                
1 20775U 90078B   26197.21382159  .00008191  00000+0  23212-3 0  9992
2 20775  82.9039 135.3889 0343295 300.0725  56.6861 14.93593619828453
SL-8 R/B                
1 21088U 91006B   26197.20177829  .00000089  00000+0  74354-4 0  9999
2 21088  82.9407  74.4470 0023378  37.8456  80.1161 13.77509371781762
OKEAN-3                 
1 21397U 91039A   26197.31892891  .00001765  00000+0  12084-3 0  9996
2 21397  82.5144 212.1283 0012489 250.4255 109.5624 15.05438116884386
COSMOS 2151             
1 21422U 91042A   26197.26867376  .00000782  00000+0  59801-4 0  9990
2 21422  82.4982 319.6150 0011855 351.8373   8.2656 15.00514614882474
SL-14 R/B               
1 21423U 91042B   26197.18744200  .00000176  00000+0  19190-4 0  9996
2 21423  82.4932  99.7011 0017068 173.6712 186.4721 14.81918344872108
ERS-1                   
1 21574U 91050A   26197.28836631  .00000164  00000+0  66902-4 0  9993
2 21574  98.7796 218.6970 0031933 178.5323 181.5964 14.39533659834230
ARIANE 40 R/B           
1 21610U 91050F   26197.10342986  .00000115  00000+0  46915-4 0  9998
2 21610  98.1862 244.3917 0004122  59.4453 300.7145 14.42972173837519
INTERCOSMOS 25          
1 21819U 91086A   26197.08369074  .00000069  00000+0  10539-4 0  9993
2 21819  82.6006 232.3233 1484618 200.0074 153.6347 12.12240627512248
SL-8 R/B                
1 21876U 92008B   26197.06866883  .00000094  00000+0  80381-4 0  9999
2 21876  82.9272 172.3140 0035717 134.2327 295.2034 13.75983948727074
SL-8 R/B                
1 21938U 92020B   26197.16130933  .00000010  00000+0 -51996-5 0  9993
2 21938  82.9280  58.3324 0027931 300.7035 177.6523 13.75550179718795
USA 81                  
1 21949U 92023A   26197.12540572  .00000102  00000+0  30324-4 0  9990
2 21949  85.0050  57.3014 0001932  65.2552 294.8842 14.32405104113179
COSMOS 2219             
1 22219U 92076A   26197.19286064 -.00000226  00000+0 -93798-4 0  9992
2 22219  71.0611 109.4381 0018329 355.9542   4.1430 14.14108359736549
SL-16 R/B               
1 22220U 92076B   26197.25196038  .00000086  00000+0  66544-4 0  9993
2 22220  71.0004 277.5554 0015035 260.8538 130.1457 14.16877766740042
COSMOS 2221             
1 22236U 92080A   26197.29052959  .00000821  00000+0  69610-4 0  9996
2 22236  82.5047 155.8810 0015783 116.9143 243.3694 14.96605583800028
SL-16 R/B               
1 22285U 92093B   26197.14622046 -.00000248  00000+0 -10240-3 0  9997
2 22285  71.0216  94.5989 0002238 132.2455 227.8858 14.15465450731331
COSMOS 2228             
1 22286U 92094A   26197.21844031  .00000787  00000+0  64822-4 0  9999
2 22286  82.5188 114.2354 0016385 225.4849 134.5036 14.97677111795299
SL-16 R/B               
1 22566U 93016B   26197.27071921  .00000245  00000+0  15003-3 0  9996
2 22566  71.0086 305.1218 0008799 136.0330 224.1494 14.15313192720368
COSMOS 2242             
1 22626U 93024A   26197.25807006  .00000863  00000+0  72656-4 0  9995
2 22626  82.5199 143.7300 0014729 228.6859 131.3096 14.96986479799624
SL-16 R/B               
1 22803U 93059B   26197.14549403 -.00000074  00000+0 -12594-4 0  9993
2 22803  70.9901 100.2368 0016699   7.1032 353.0325 14.17249367697734
ARIANE 40 R/B           
1 22830U 93061H   26197.18398177  .00000068  00000+0  40771-4 0  9999
2 22830  98.4806 263.4367 0009506 262.4796  97.5308 14.32918759712505
COSMOS 2278             
1 23087U 94023A   26197.17253399  .00000040  00000+0  45371-4 0  9999
2 23087  71.0522 266.2814 0009582 204.0865 155.9811 14.14393379662971
SL-16 R/B               
1 23088U 94023B   26197.16134909  .00000158  00000+0  10607-3 0  9997
2 23088  70.9985 161.0827 0001393 124.5524 235.5731 14.15024856664261
SL-16 R/B               
1 23343U 94074B   26197.09434780  .00000185  00000+0  31246-4 0  9992
2 23343  97.6986 222.6096 0007235 151.6316 274.3259 14.79524746706238
